start=new Date('2022-07-18T00:00:00.000Z').valueOf();
sats=[{"SEMIMAJOR_AXIS":"6925.355","ARG_OF_PERICENTER":"71.2803","MEAN_ANOMALY":"288.8360","OBJECT_NAME":"STARLINK-1169","MEAN_MOTION_DOT":"-0.00000723","MEAN_MOTION_DDOT":"0.0000000000000","DECAY_DATE":null,"FILE":"3516387","TIME_SYSTEM":"UTC","RCS_SIZE":"LARGE","CENTER_NAME":"EARTH","PERIOD":"95.592","INCLINATION":"53.0526","SITE":"AFETR","REV_AT_EPOCH":"13587","TLE_LINE2":"2 45061  53.0526 141.0061 0001611  71.2803 288.8360 15.06397750135874","MEAN_ELEMENT_THEORY":"SGP4","CLASSIFICATION_TYPE":"U","PERIAPSIS":"546.105","EPOCH":"2022-07-17T20:19:23.437920","EPHEMERIS_TYPE":"0","REF_FRAME":"TEME","ELEMENT_SET_NO":"999","TLE_LINE1":"1 45061U 20006T   22198.84679905 -.00000723  00000-0 -29673-4 0  9999","MEAN_MOTION":"15.06397750","COUNTRY_CODE":"US","OBJECT_TYPE":"PAYLOAD","NORAD_CAT_ID":"45061","APOAPSIS":"548.336","ECCENTRICITY":"0.00016110","OBJECT_ID":"2020-006T","LAUNCH_DATE":"2020-01-29","GP_ID":"208336733","BSTAR":"-0.00002967300000","RA_OF_ASC_NODE":"141.0061"},{"OBJECT_TYPE":"PAYLOAD","COUNTRY_CODE":"US","ELEMENT_SET_NO":"999","MEAN_MOTION":"15.06409966","TLE_LINE1":"1 45062U 20006U   22198.56666486  .00000374  00000-0  43992-4 0  9999","RA_OF_ASC_NODE":"142.2615","GP_ID":"208305589","BSTAR":"0.00004399200000","ECCENTRICITY":"0.00017110","LAUNCH_DATE":"2020-01-29","OBJECT_ID":"2020-006U","NORAD_CAT_ID":"45062","APOAPSIS":"548.368","OBJECT_NAME":"STARLINK-1171","MEAN_ANOMALY":"287.1986","DECAY_DATE":null,"MEAN_MOTION_DOT":"0.00000374","MEAN_MOTION_DDOT":"0.0000000000000","ARG_OF_PERICENTER":"72.9190","SEMIMAJOR_AXIS":"6925.318","PERIAPSIS":"545.998","CLASSIFICATION_TYPE":"U","EPHEMERIS_TYPE":"0","REF_FRAME":"TEME","EPOCH":"2022-07-17T13:35:59.843904","MEAN_ELEMENT_THEORY":"SGP4","SITE":"AFETR","INCLINATION":"53.0549","CENTER_NAME":"EARTH","PERIOD":"95.592","TLE_LINE2":"2 45062  53.0549 142.2615 0001711  72.9190 287.1986 15.06409966135831","REV_AT_EPOCH":"13583","TIME_SYSTEM":"UTC","RCS_SIZE":"LARGE","FILE":"3516162"},{"APOAPSIS":"548.191","NORAD_CAT_ID":"45064","OBJECT_ID":"2020-006W","LAUNCH_DATE":"2020-01-29","ECCENTRICITY":"0.00014100","GP_ID":"208335235","BSTAR":"-0.00001241600000","RA_OF_ASC_NODE":"121.0228","TLE_LINE1":"1 45064U 20006W   22198.84495631 -.00000466  00000-0 -12416-4 0  9995","MEAN_MOTION":"15.06399671","ELEMENT_SET_NO":"999","COUNTRY_CODE":"US","OBJECT_TYPE":"PAYLOAD","FILE":"3516387","RCS_SIZE":"LARGE","TIME_SYSTEM":"UTC","REV_AT_EPOCH":"13615","TLE_LINE2":"2 45064  53.0536 121.0228 0001410  78.1378 281.9769 15.06399671136154","PERIOD":"95.592","CENTER_NAME":"EARTH","SITE":"AFETR","INCLINATION":"53.0536","MEAN_ELEMENT_THEORY":"SGP4","EPOCH":"2022-07-17T20:16:44.225184","REF_FRAME":"TEME","EPHEMERIS_TYPE":"0","CLASSIFICATION_TYPE":"U","PERIAPSIS":"546.238","SEMIMAJOR_AXIS":"6925.350","ARG_OF_PERICENTER":"78.1378","MEAN_MOTION_DOT":"-0.00000466","MEAN_MOTION_DDOT":"0.0000000000000","DECAY_DATE":null,"MEAN_ANOMALY":"281.9769","OBJECT_NAME":"STARLINK-1133"},{"ELEMENT_SET_NO":"999","TLE_LINE1":"1 45065U 20006X   22198.78229487 -.00000872  00000-0 -39631-4 0  9992","MEAN_MOTION":"15.06400768","OBJECT_TYPE":"PAYLOAD","COUNTRY_CODE":"US","ECCENTRICITY":"0.00014500","OBJECT_ID":"2020-006X","LAUNCH_DATE":"2020-01-29","NORAD_CAT_ID":"45065","APOAPSIS":"548.215","RA_OF_ASC_NODE":"121.3020","BSTAR":"-0.00003963100000","GP_ID":"208335485","MEAN_ANOMALY":"280.9543","OBJECT_NAME":"STARLINK-1139","MEAN_MOTION_DDOT":"0.0000000000000","MEAN_MOTION_DOT":"-0.00000872","DECAY_DATE":null,"SEMIMAJOR_AXIS":"6925.346","ARG_OF_PERICENTER":"79.1609","CENTER_NAME":"EARTH","PERIOD":"95.592","SITE":"AFETR","INCLINATION":"53.0544","REV_AT_EPOCH":"13614","TLE_LINE2":"2 45065  53.0544 121.3020 0001450  79.1609 280.9543 15.06400768136147","FILE":"3516387","RCS_SIZE":"LARGE","TIME_SYSTEM":"UTC","PERIAPSIS":"546.207","CLASSIFICATION_TYPE":"U","EPOCH":"2022-07-17T18:46:30.276768","REF_FRAME":"TEME","EPHEMERIS_TYPE":"0","MEAN_ELEMENT_THEORY":"SGP4"},{"OBJECT_TYPE":"PAYLOAD","COUNTRY_CODE":"US","ELEMENT_SET_NO":"999","MEAN_MOTION":"15.06399745","TLE_LINE1":"1 45066U 20006Y   22198.88918576 -.00001828  00000-0 -10388-3 0  9997","RA_OF_ASC_NODE":"120.8089","BSTAR":"-0.00010388000000","GP_ID":"208336234","ECCENTRICITY":"0.00014980","LAUNCH_DATE":"2020-01-29","OBJECT_ID":"2020-006Y","NORAD_CAT_ID":"45066","APOAPSIS":"548.252","OBJECT_NAME":"STARLINK-1145","MEAN_ANOMALY":"288.1094","DECAY_DATE":null,"MEAN_MOTION_DOT":"-0.00001828","MEAN_MOTION_DDOT":"0.0000000000000","ARG_OF_PERICENTER":"72.0058","SEMIMAJOR_AXIS":"6925.349","PERIAPSIS":"546.177","CLASSIFICATION_TYPE":"U","REF_FRAME":"TEME","EPHEMERIS_TYPE":"0","EPOCH":"2022-07-17T21:20:25.649664","MEAN_ELEMENT_THEORY":"SGP4","SITE":"AFETR","INCLINATION":"53.0528","PERIOD":"95.592","CENTER_NAME":"EARTH","TLE_LINE2":"2 45066  53.0528 120.8089 0001498  72.0058 288.1094 15.06399745136155","REV_AT_EPOCH":"13615","RCS_SIZE":"LARGE","TIME_SYSTEM":"UTC","FILE":"3516387"},{"OBJECT_TYPE":"PAYLOAD","COUNTRY_CODE":"US","TLE_LINE1":"1 45067U 20006Z   22198.50587012 -.00001807  00000-0 -10246-3 0  9994","MEAN_MOTION":"15.06382252","ELEMENT_SET_NO":"999","RA_OF_ASC_NODE":"122.5371","BSTAR":"-0.00010246000000","GP_ID":"208305094","OBJECT_ID":"2020-006Z","LAUNCH_DATE":"2020-01-29","ECCENTRICITY":"0.00017010","APOAPSIS":"548.446","NORAD_CAT_ID":"45067","MEAN_MOTION_DDOT":"0.0000000000000","MEAN_MOTION_DOT":"-0.00001807","DECAY_DATE":null,"MEAN_ANOMALY":"287.9314","OBJECT_NAME":"STARLINK-1150","SEMIMAJOR_AXIS":"6925.403","ARG_OF_PERICENTER":"72.1861","EPOCH":"2022-07-17T12:08:27.178368","EPHEMERIS_TYPE":"0","REF_FRAME":"TEME","PERIAPSIS":"546.090","CLASSIFICATION_TYPE":"U","MEAN_ELEMENT_THEORY":"SGP4","REV_AT_EPOCH":"13610","TLE_LINE2":"2 45067  53.0569 122.5371 0001701  72.1861 287.9314 15.06382252136106","PERIOD":"95.593","CENTER_NAME":"EARTH","INCLINATION":"53.0569","SITE":"AFETR","FILE":"3516162","TIME_SYSTEM":"UTC","RCS_SIZE":"LARGE"},{"GP_ID":"208335734","BSTAR":"0.00012535000000","RA_OF_ASC_NODE":"121.3435","NORAD_CAT_ID":"45068","APOAPSIS":"548.111","ECCENTRICITY":"0.00013850","LAUNCH_DATE":"2020-01-29","OBJECT_ID":"2020-006AA","COUNTRY_CODE":"US","OBJECT_TYPE":"PAYLOAD","ELEMENT_SET_NO":"999","MEAN_MOTION":"15.06420113","TLE_LINE1":"1 45068U 20006AA  22198.74444257  .00001587  00000-0  12535-3 0  9990","MEAN_ELEMENT_THEORY":"SGP4","PERIAPSIS":"546.193","CLASSIFICATION_TYPE":"U","EPHEMERIS_TYPE":"0","REF_FRAME":"TEME","EPOCH":"2022-07-17T17:51:59.838048","TIME_SYSTEM":"UTC","RCS_SIZE":"LARGE","FILE":"3516387","INCLINATION":"53.0565","SITE":"AFETR","CENTER_NAME":"EARTH","PERIOD":"95.591","TLE_LINE2":"2 45068  53.0565 121.3435 0001385  77.1758 282.9385 15.06420113136134","REV_AT_EPOCH":"13613","ARG_OF_PERICENTER":"77.1758","SEMIMAJOR_AXIS":"6925.287","OBJECT_NAME":"STARLINK-1161","MEAN_ANOMALY":"282.9385","DECAY_DATE":null,"MEAN_MOTION_DDOT":"0.0000000000000","MEAN_MOTION_DOT":"0.00001587"},{"RA_OF_ASC_NODE":"120.9033","GP_ID":"208335984","BSTAR":"-0.00010945000000","ECCENTRICITY":"0.00015580","LAUNCH_DATE":"2020-01-29","OBJECT_ID":"2020-006AD","NORAD_CAT_ID":"45071","APOAPSIS":"548.309","OBJECT_TYPE":"PAYLOAD","COUNTRY_CODE":"US","ELEMENT_SET_NO":"999","MEAN_MOTION":"15.06394629","TLE_LINE1":"1 45071U 20006AD  22198.87076053 -.00001911  00000-0 -10945-3 0  9999","CLASSIFICATION_TYPE":"U","PERIAPSIS":"546.151","REF_FRAME":"TEME","EPHEMERIS_TYPE":"0","EPOCH":"2022-07-17T20:53:53.709792","MEAN_ELEMENT_THEORY":"SGP4","SITE":"AFETR","INCLINATION":"53.0534","PERIOD":"95.592","CENTER_NAME":"EARTH","TLE_LINE2":"2 45071  53.0534 120.9033 0001558  69.1441 290.9715 15.06394629136155","REV_AT_EPOCH":"13615","RCS_SIZE":"LARGE","TIME_SYSTEM":"UTC","FILE":"3516387","OBJECT_NAME":"STARLINK-1167","MEAN_ANOMALY":"290.9715","DECAY_DATE":null,"MEAN_MOTION_DOT":"-0.00001911","MEAN_MOTION_DDOT":"0.0000000000000","ARG_OF_PERICENTER":"69.1441","SEMIMAJOR_AXIS":"6925.365"},{"COUNTRY_CODE":"US","OBJECT_TYPE":"PAYLOAD","ELEMENT_SET_NO":"999","MEAN_MOTION":"15.06401524","TLE_LINE1":"1 45072U 20006AE  22198.74174961  .00000404  00000-0  46022-4 0  9993","BSTAR":"0.00004602200000","GP_ID":"208336734","RA_OF_ASC_NODE":"121.4868","NORAD_CAT_ID":"45072","APOAPSIS":"548.302","ECCENTRICITY":"0.00015790","LAUNCH_DATE":"2020-01-29","OBJECT_ID":"2020-006AE","ARG_OF_PERICENTER":"76.8351","SEMIMAJOR_AXIS":"6925.344","OBJECT_NAME":"STARLINK-1168","MEAN_ANOMALY":"283.2814","DECAY_DATE":null,"MEAN_MOTION_DDOT":"0.0000000000000","MEAN_MOTION_DOT":"0.00000404","MEAN_ELEMENT_THEORY":"SGP4","PERIAPSIS":"546.115","CLASSIFICATION_TYPE":"U","REF_FRAME":"TEME","EPHEMERIS_TYPE":"0","EPOCH":"2022-07-17T17:48:07.166304","TIME_SYSTEM":"UTC","RCS_SIZE":"LARGE","FILE":"3516387","SITE":"AFETR","INCLINATION":"53.0551","PERIOD":"95.592","CENTER_NAME":"EARTH","TLE_LINE2":"2 45072  53.0551 121.4868 0001579  76.8351 283.2814 15.06401524136131","REV_AT_EPOCH":"13613"},{"APOAPSIS":"548.564","NORAD_CAT_ID":"45073","OBJECT_ID":"2020-006AF","LAUNCH_DATE":"2020-01-29","ECCENTRICITY":"0.00019440","GP_ID":"208336976","BSTAR":"-0.00003612500000","RA_OF_ASC_NODE":"121.9477","TLE_LINE1":"1 45073U 20006AF  22198.63485695 -.00000820  00000-0 -36125-4 0  9998","MEAN_MOTION":"15.06398546","ELEMENT_SET_NO":"999","COUNTRY_CODE":"US","OBJECT_TYPE":"PAYLOAD","FILE":"3516387","RCS_SIZE":"LARGE","TIME_SYSTEM":"UTC","REV_AT_EPOCH":"13611","TLE_LINE2":"2 45073  53.0536 121.9477 0001944  61.5202 298.5983 15.06398546136111","CENTER_NAME":"EARTH","PERIOD":"95.592","INCLINATION":"53.0536","SITE":"AFETR","MEAN_ELEMENT_THEORY":"SGP4","EPOCH":"2022-07-17T15:14:11.640480","EPHEMERIS_TYPE":"0","REF_FRAME":"TEME","CLASSIFICATION_TYPE":"U","PERIAPSIS":"545.872","SEMIMAJOR_AXIS":"6925.353","ARG_OF_PERICENTER":"61.5202","MEAN_MOTION_DOT":"-0.00000820","MEAN_MOTION_DDOT":"0.0000000000000","DECAY_DATE":null,"MEAN_ANOMALY":"298.5983","OBJECT_NAME":"STARLINK-1170"}];
